[{"OBJECT_NAME":"POLYITAN-1","OBJECT_ID":"2014-033AJ","EPOCH":"2026-03-09T22:27:50.258304","MEAN_MOTION":15.29568085,"ECCENTRICITY":0.00093607,"INCLINATION":98.1053,"RA_OF_ASC_NODE":86.0432,"ARG_OF_PERICENTER":127.248,"MEAN_ANOMALY":232.9614,"EPHEMERIS_TYPE":0,"CLASSIFICATION_TYPE":"U","NORAD_CAT_ID":40042,"ELEMENT_SET_NO":999,"REV_AT_EPOCH":63840,"BSTAR":0.00083772474,"MEAN_MOTION_DOT":0.00024003,"MEAN_MOTION_DDOT":0},{"OBJECT_NAME":"STARLINK-32045","OBJECT_ID":"2024-117R","EPOCH":"2026-03-09T08:28:19.501536","MEAN_MOTION":15.30191201,"ECCENTRICITY":0.00013224,"INCLINATION":53.1616,"RA_OF_ASC_NODE":38.7739,"ARG_OF_PERICENTER":93.8989,"MEAN_ANOMALY":266.2163,"EPHEMERIS_TYPE":0,"CLASSIFICATION_TYPE":"U","NORAD_CAT_ID":60106,"ELEMENT_SET_NO":999,"REV_AT_EPOCH":9683,"BSTAR":5.1721442e-5,"MEAN_MOTION_DOT":1.173e-5,"MEAN_MOTION_DDOT":0}]
